start=new Date('2022-08-28T00:00:00.000Z').valueOf();
sats=[{"TLE_LINE2":"2 49748  53.2180 179.5587 0002054  56.6350 303.4839 15.08844154 40814","EPOCH":"2022-08-27T19:49:57.078912","LAUNCH_DATE":"2021-12-02","ELEMENT_SET_NO":"999","NORAD_CAT_ID":"49748","EPHEMERIS_TYPE":"0","FILE":"3548882","REV_AT_EPOCH":"4081","SEMIMAJOR_AXIS":"6917.868","SITE":"AFETR","TIME_SYSTEM":"UTC","MEAN_ELEMENT_THEORY":"SGP4","OBJECT_TYPE":"PAYLOAD","RCS_SIZE":"LARGE","GP_ID":"211137814","CLASSIFICATION_TYPE":"U","DECAY_DATE":null,"APOAPSIS":"541.154","MEAN_MOTION_DOT":"0.00001665","RA_OF_ASC_NODE":"179.5587","ECCENTRICITY":"0.00020540","MEAN_MOTION":"15.08844154","PERIOD":"95.437","OBJECT_ID":"2021-115AA","ARG_OF_PERICENTER":"56.6350","MEAN_MOTION_DDOT":"0.0000000000000","COUNTRY_CODE":"US","REF_FRAME":"TEME","INCLINATION":"53.2180","MEAN_ANOMALY":"303.4839","PERIAPSIS":"538.312","CENTER_NAME":"EARTH","BSTAR":"0.00012265000000","OBJECT_NAME":"STARLINK-3248","TLE_LINE1":"1 49748U 21115AA  22239.82635508  .00001665  00000-0  12265-3 0  9994"},{"CENTER_NAME":"EARTH","BSTAR":"0.00001244200000","TLE_LINE1":"1 49749U 21115AB  22239.21915450 -.00000090  00000-0  12442-4 0  9995","OBJECT_NAME":"STARLINK-3250","OBJECT_ID":"2021-115AB","PERIOD":"95.437","ARG_OF_PERICENTER":"58.3975","COUNTRY_CODE":"US","MEAN_MOTION_DDOT":"0.0000000000000","REF_FRAME":"TEME","INCLINATION":"53.2168","MEAN_ANOMALY":"301.7233","PERIAPSIS":"538.197","OBJECT_TYPE":"PAYLOAD","RCS_SIZE":"LARGE","GP_ID":"211105061","CLASSIFICATION_TYPE":"U","DECAY_DATE":null,"MEAN_MOTION_DOT":"-0.00000090","APOAPSIS":"541.259","RA_OF_ASC_NODE":"182.2678","ECCENTRICITY":"0.00022130","MEAN_MOTION":"15.08845744","EPOCH":"2022-08-27T05:15:34.948800","TLE_LINE2":"2 49749  53.2168 182.2678 0002213  58.3975 301.7233 15.08845744 40716","ELEMENT_SET_NO":"999","LAUNCH_DATE":"2021-12-02","FILE":"3548622","REV_AT_EPOCH":"4071","EPHEMERIS_TYPE":"0","NORAD_CAT_ID":"49749","TIME_SYSTEM":"UTC","SITE":"AFETR","SEMIMAJOR_AXIS":"6917.863","MEAN_ELEMENT_THEORY":"SGP4"},{"CENTER_NAME":"EARTH","TLE_LINE1":"1 49750U 21115AC  22239.23756164 -.00000217  00000-0  45067-5 0  9995","OBJECT_NAME":"STARLINK-3236","BSTAR":"0.00000450670000","PERIOD":"95.438","ARG_OF_PERICENTER":"61.5860","OBJECT_ID":"2021-115AC","MEAN_MOTION_DDOT":"0.0000000000000","COUNTRY_CODE":"US","MEAN_ANOMALY":"298.5358","PERIAPSIS":"538.204","REF_FRAME":"TEME","INCLINATION":"53.2158","DECAY_DATE":null,"APOAPSIS":"541.297","MEAN_MOTION_DOT":"-0.00000217","RCS_SIZE":"LARGE","OBJECT_TYPE":"PAYLOAD","CLASSIFICATION_TYPE":"U","GP_ID":"211105313","MEAN_MOTION":"15.08838296","RA_OF_ASC_NODE":"182.1953","ECCENTRICITY":"0.00022350","EPOCH":"2022-08-27T05:42:05.325696","TLE_LINE2":"2 49750  53.2158 182.1953 0002235  61.5860 298.5358 15.08838296 40721","SITE":"AFETR","TIME_SYSTEM":"UTC","SEMIMAJOR_AXIS":"6917.886","MEAN_ELEMENT_THEORY":"SGP4","ELEMENT_SET_NO":"999","LAUNCH_DATE":"2021-12-02","REV_AT_EPOCH":"4072","FILE":"3548622","EPHEMERIS_TYPE":"0","NORAD_CAT_ID":"49750"},{"GP_ID":"211137070","CLASSIFICATION_TYPE":"U","OBJECT_TYPE":"PAYLOAD","RCS_SIZE":"LARGE","APOAPSIS":"541.321","MEAN_MOTION_DOT":"0.00001555","DECAY_DATE":null,"ECCENTRICITY":"0.00022740","RA_OF_ASC_NODE":"179.5682","MEAN_MOTION":"15.08839098","EPOCH":"2022-08-27T19:44:39.650496","TLE_LINE2":"2 49751  53.2173 179.5682 0002274  53.6869 306.4333 15.08839098 40815","REV_AT_EPOCH":"4081","FILE":"3548882","EPHEMERIS_TYPE":"0","NORAD_CAT_ID":"49751","ELEMENT_SET_NO":"999","LAUNCH_DATE":"2021-12-02","MEAN_ELEMENT_THEORY":"SGP4","SEMIMAJOR_AXIS":"6917.883","SITE":"AFETR","TIME_SYSTEM":"UTC","CENTER_NAME":"EARTH","BSTAR":"0.00011582000000","TLE_LINE1":"1 49751U 21115AD  22239.82268114  .00001555  00000-0  11582-3 0  9992","OBJECT_NAME":"STARLINK-3229","COUNTRY_CODE":"US","MEAN_MOTION_DDOT":"0.0000000000000","OBJECT_ID":"2021-115AD","PERIOD":"95.438","ARG_OF_PERICENTER":"53.6869","INCLINATION":"53.2173","REF_FRAME":"TEME","PERIAPSIS":"538.175","MEAN_ANOMALY":"306.4333"},{"RA_OF_ASC_NODE":"172.4273","ECCENTRICITY":"0.00022620","MEAN_MOTION":"15.08842734","RCS_SIZE":"LARGE","OBJECT_TYPE":"PAYLOAD","CLASSIFICATION_TYPE":"U","GP_ID":"211104814","DECAY_DATE":null,"APOAPSIS":"541.302","MEAN_MOTION_DOT":"0.00002169","LAUNCH_DATE":"2021-12-02","ELEMENT_SET_NO":"999","NORAD_CAT_ID":"49752","FILE":"3548622","EPHEMERIS_TYPE":"0","REV_AT_EPOCH":"4085","SEMIMAJOR_AXIS":"6917.872","SITE":"AFETR","TIME_SYSTEM":"UTC","MEAN_ELEMENT_THEORY":"SGP4","TLE_LINE2":"2 49752  53.2165 172.4273 0002262  62.0330 298.0891 15.08842734 40859","EPOCH":"2022-08-27T04:29:13.213536","BSTAR":"0.00015434000000","OBJECT_NAME":"STARLINK-3209","TLE_LINE1":"1 49752U 21115AE  22239.18695849  .00002169  00000-0  15434-3 0  9993","CENTER_NAME":"EARTH","REF_FRAME":"TEME","INCLINATION":"53.2165","PERIAPSIS":"538.172","MEAN_ANOMALY":"298.0891","PERIOD":"95.437","ARG_OF_PERICENTER":"62.0330","OBJECT_ID":"2021-115AE","COUNTRY_CODE":"US","MEAN_MOTION_DDOT":"0.0000000000000"},{"MEAN_MOTION_DDOT":"0.0000000000000","COUNTRY_CODE":"US","PERIOD":"95.438","ARG_OF_PERICENTER":"60.0020","OBJECT_ID":"2021-115AF","INCLINATION":"53.2173","REF_FRAME":"TEME","MEAN_ANOMALY":"300.1220","PERIAPSIS":"538.023","CENTER_NAME":"EARTH","BSTAR":"0.00001574800000","TLE_LINE1":"1 49753U 21115AF  22239.56508379 -.00000038  00000-0  15748-4 0  9990","OBJECT_NAME":"STARLINK-3200","EPOCH":"2022-08-27T13:33:43.239456","TLE_LINE2":"2 49753  53.2173 180.7324 0002492  60.0020 300.1220 15.08839499 40773","FILE":"3548882","EPHEMERIS_TYPE":"0","REV_AT_EPOCH":"4077","NORAD_CAT_ID":"49753","ELEMENT_SET_NO":"999","LAUNCH_DATE":"2021-12-02","MEAN_ELEMENT_THEORY":"SGP4","TIME_SYSTEM":"UTC","SITE":"AFETR","SEMIMAJOR_AXIS":"6917.882","GP_ID":"211137541","CLASSIFICATION_TYPE":"U","OBJECT_TYPE":"PAYLOAD","RCS_SIZE":"LARGE","APOAPSIS":"541.471","MEAN_MOTION_DOT":"-0.00000038","DECAY_DATE":null,"ECCENTRICITY":"0.00024920","RA_OF_ASC_NODE":"180.7324","MEAN_MOTION":"15.08839499"},{"TLE_LINE2":"2 49754  53.2165 169.7622 0002449 253.1817 106.8907 15.08839090 40943","EPOCH":"2022-08-27T18:38:27.653280","NORAD_CAT_ID":"49754","EPHEMERIS_TYPE":"0","FILE":"3548882","REV_AT_EPOCH":"4094","LAUNCH_DATE":"2021-12-02","ELEMENT_SET_NO":"999","MEAN_ELEMENT_THEORY":"SGP4","TIME_SYSTEM":"UTC","SITE":"AFETR","SEMIMAJOR_AXIS":"6917.883","CLASSIFICATION_TYPE":"U","GP_ID":"211136327","OBJECT_TYPE":"PAYLOAD","RCS_SIZE":"LARGE","APOAPSIS":"541.442","MEAN_MOTION_DOT":"0.00000055","DECAY_DATE":null,"ECCENTRICITY":"0.00024490","RA_OF_ASC_NODE":"169.7622","MEAN_MOTION":"15.08839090","COUNTRY_CODE":"US","MEAN_MOTION_DDOT":"0.0000000000000","ARG_OF_PERICENTER":"253.1817","PERIOD":"95.438","OBJECT_ID":"2021-115AG","INCLINATION":"53.2165","REF_FRAME":"TEME","MEAN_ANOMALY":"106.8907","PERIAPSIS":"538.054","CENTER_NAME":"EARTH","BSTAR":"0.00002155800000","OBJECT_NAME":"STARLINK-3193","TLE_LINE1":"1 49754U 21115AG  22239.77670895  .00000055  00000-0  21558-4 0  9991"},{"DECAY_DATE":null,"APOAPSIS":"540.793","MEAN_MOTION_DOT":"0.00000216","RCS_SIZE":"LARGE","OBJECT_TYPE":"PAYLOAD","GP_ID":"211136577","CLASSIFICATION_TYPE":"U","MEAN_MOTION":"15.08843804","RA_OF_ASC_NODE":"180.6905","ECCENTRICITY":"0.00015310","TLE_LINE2":"2 49755  53.2184 180.6905 0001531  73.9922 286.1239 15.08843804 40776","EPOCH":"2022-08-27T13:44:18.620736","SEMIMAJOR_AXIS":"6917.869","SITE":"AFETR","TIME_SYSTEM":"UTC","MEAN_ELEMENT_THEORY":"SGP4","LAUNCH_DATE":"2021-12-02","ELEMENT_SET_NO":"999","NORAD_CAT_ID":"49755","REV_AT_EPOCH":"4077","FILE":"3548882","EPHEMERIS_TYPE":"0","CENTER_NAME":"EARTH","OBJECT_NAME":"STARLINK-3210","TLE_LINE1":"1 49755U 21115AH  22239.57243774  .00000216  00000-0  31672-4 0  9999","BSTAR":"0.00003167200000","PERIOD":"95.437","ARG_OF_PERICENTER":"73.9922","OBJECT_ID":"2021-115AH","MEAN_MOTION_DDOT":"0.0000000000000","COUNTRY_CODE":"US","MEAN_ANOMALY":"286.1239","PERIAPSIS":"538.675","REF_FRAME":"TEME","INCLINATION":"53.2184"},{"PERIAPSIS":"538.428","MEAN_ANOMALY":"297.1582","INCLINATION":"53.2160","REF_FRAME":"TEME","MEAN_MOTION_DDOT":"0.0000000000000","COUNTRY_CODE":"US","OBJECT_ID":"2021-115AJ","PERIOD":"95.437","ARG_OF_PERICENTER":"62.9603","OBJECT_NAME":"STARLINK-3207","TLE_LINE1":"1 49756U 21115AJ  22239.19799740  .00001614  00000-0  11946-3 0  9991","BSTAR":"0.00011946000000","CENTER_NAME":"EARTH","MEAN_ELEMENT_THEORY":"SGP4","SITE":"AFETR","TIME_SYSTEM":"UTC","SEMIMAJOR_AXIS":"6917.874","NORAD_CAT_ID":"49756","FILE":"3548622","EPHEMERIS_TYPE":"0","REV_AT_EPOCH":"4085","LAUNCH_DATE":"2021-12-02","ELEMENT_SET_NO":"999","TLE_LINE2":"2 49756  53.2160 172.3620 0001894  62.9603 297.1582 15.08842249 40853","EPOCH":"2022-08-27T04:45:06.975360","MEAN_MOTION":"15.08842249","ECCENTRICITY":"0.00018940","RA_OF_ASC_NODE":"172.3620","APOAPSIS":"541.049","MEAN_MOTION_DOT":"0.00001614","DECAY_DATE":null,"CLASSIFICATION_TYPE":"U","GP_ID":"211104314","OBJECT_TYPE":"PAYLOAD","RCS_SIZE":"LARGE"},{"MEAN_MOTION_DDOT":"0.0000000000000","COUNTRY_CODE":"US","PERIOD":"95.438","OBJECT_ID":"2021-115AK","ARG_OF_PERICENTER":"56.9098","MEAN_ANOMALY":"303.2142","PERIAPSIS":"537.980","INCLINATION":"53.2159","REF_FRAME":"TEME","CENTER_NAME":"EARTH","TLE_LINE1":"1 49757U 21115AK  22239.19064868 -.00000216  00000-0  45567-5 0  9994","OBJECT_NAME":"STARLINK-3197","BSTAR":"0.00000455670000","EPOCH":"2022-08-27T04:34:32.045952","TLE_LINE2":"2 49757  53.2159 172.3981 0002581  56.9098 303.2142 15.08833333 40852","MEAN_ELEMENT_THEORY":"SGP4","SITE":"AFETR","SEMIMAJOR_AXIS":"6917.901","TIME_SYSTEM":"UTC","REV_AT_EPOCH":"4085","FILE":"3548622","EPHEMERIS_TYPE":"0","NORAD_CAT_ID":"49757","ELEMENT_SET_NO":"999","LAUNCH_DATE":"2021-12-02","APOAPSIS":"541.551","MEAN_MOTION_DOT":"-0.00000216","DECAY_DATE":null,"GP_ID":"211105062","CLASSIFICATION_TYPE":"U","OBJECT_TYPE":"PAYLOAD","RCS_SIZE":"LARGE","MEAN_MOTION":"15.08833333","ECCENTRICITY":"0.00025810","RA_OF_ASC_NODE":"172.3981"}];
